start=new Date('2022-07-27T00:00:00.000Z').valueOf();
sats=[{"OBJECT_TYPE":"PAYLOAD","EPHEMERIS_TYPE":"0","CLASSIFICATION_TYPE":"U","LAUNCH_DATE":"2020-09-03","MEAN_MOTION_DDOT":"0.0000000000000","SITE":"AFETR","CENTER_NAME":"EARTH","OBJECT_ID":"2020-062AR","ECCENTRICITY":"0.00013120","ARG_OF_PERICENTER":"111.3388","MEAN_MOTION":"15.06394156","MEAN_MOTION_DOT":"0.00000454","REF_FRAME":"TEME","INCLINATION":"53.0547","COUNTRY_CODE":"US","OBJECT_NAME":"STARLINK-1763","EPOCH":"2022-07-26T19:27:17.339904","DECAY_DATE":null,"PERIAPSIS":"546.323","PERIOD":"95.593","NORAD_CAT_ID":"46364","ELEMENT_SET_NO":"999","TLE_LINE1":"1 46364U 20062AR  22207.81061736  .00000454  00000-0  49395-4 0  9995","MEAN_ANOMALY":"248.7741","RCS_SIZE":"LARGE","RA_OF_ASC_NODE":"126.2579","TIME_SYSTEM":"UTC","FILE":"3522469","GP_ID":"208926200","APOAPSIS":"548.140","MEAN_ELEMENT_THEORY":"SGP4","BSTAR":"0.00004939500000","REV_AT_EPOCH":"10597","SEMIMAJOR_AXIS":"6925.366","TLE_LINE2":"2 46364  53.0547 126.2579 0001312 111.3388 248.7741 15.06394156105978"},{"ARG_OF_PERICENTER":"63.0144","MEAN_MOTION":"15.06399139","OBJECT_ID":"2020-062AS","ECCENTRICITY":"0.00015610","OBJECT_NAME":"STARLINK-1550","COUNTRY_CODE":"US","REF_FRAME":"TEME","INCLINATION":"53.0551","MEAN_MOTION_DOT":"0.00000966","EPHEMERIS_TYPE":"0","CLASSIFICATION_TYPE":"U","OBJECT_TYPE":"PAYLOAD","CENTER_NAME":"EARTH","MEAN_MOTION_DDOT":"0.0000000000000","SITE":"AFETR","LAUNCH_DATE":"2020-09-03","MEAN_ELEMENT_THEORY":"SGP4","GP_ID":"208926950","APOAPSIS":"548.297","RCS_SIZE":"LARGE","RA_OF_ASC_NODE":"145.5710","FILE":"3522469","TIME_SYSTEM":"UTC","TLE_LINE2":"2 46365  53.0551 145.5710 0001561  63.0144 297.1005 15.06399139105702","SEMIMAJOR_AXIS":"6925.351","BSTAR":"0.00008375300000","REV_AT_EPOCH":"10570","PERIOD":"95.592","NORAD_CAT_ID":"46365","PERIAPSIS":"546.135","DECAY_DATE":null,"EPOCH":"2022-07-26T20:28:13.344672","MEAN_ANOMALY":"297.1005","TLE_LINE1":"1 46365U 20062AS  22207.85293223  .00000966  00000-0  83753-4 0  9992","ELEMENT_SET_NO":"999"},{"MEAN_ELEMENT_THEORY":"SGP4","TIME_SYSTEM":"UTC","FILE":"3522469","RA_OF_ASC_NODE":"145.6261","RCS_SIZE":"LARGE","APOAPSIS":"548.297","GP_ID":"208927200","REV_AT_EPOCH":"10570","BSTAR":"0.00007104600000","TLE_LINE2":"2 46366  53.0547 145.6261 0001585  71.6671 288.4490 15.06404773105708","SEMIMAJOR_AXIS":"6925.334","PERIAPSIS":"546.101","NORAD_CAT_ID":"46366","PERIOD":"95.592","EPOCH":"2022-07-26T20:12:18.531360","DECAY_DATE":null,"MEAN_ANOMALY":"288.4490","ELEMENT_SET_NO":"999","TLE_LINE1":"1 46366U 20062AT  22207.84188115  .00000777  00000-0  71046-4 0  9997","ECCENTRICITY":"0.00015850","OBJECT_ID":"2020-062AT","MEAN_MOTION":"15.06404773","ARG_OF_PERICENTER":"71.6671","INCLINATION":"53.0547","REF_FRAME":"TEME","OBJECT_NAME":"STARLINK-1651","COUNTRY_CODE":"US","MEAN_MOTION_DOT":"0.00000777","OBJECT_TYPE":"PAYLOAD","EPHEMERIS_TYPE":"0","CLASSIFICATION_TYPE":"U","CENTER_NAME":"EARTH","LAUNCH_DATE":"2020-09-03","MEAN_MOTION_DDOT":"0.0000000000000","SITE":"AFETR"},{"OBJECT_TYPE":"PAYLOAD","CLASSIFICATION_TYPE":"U","EPHEMERIS_TYPE":"0","LAUNCH_DATE":"2020-09-03","MEAN_MOTION_DDOT":"0.0000000000000","SITE":"AFETR","CENTER_NAME":"EARTH","ECCENTRICITY":"0.00018770","OBJECT_ID":"2020-062AV","MEAN_MOTION":"15.06394471","ARG_OF_PERICENTER":"63.7001","MEAN_MOTION_DOT":"0.00001615","INCLINATION":"53.0526","REF_FRAME":"TEME","OBJECT_NAME":"STARLINK-1658","COUNTRY_CODE":"US","EPOCH":"2022-07-26T20:10:17.357952","DECAY_DATE":null,"PERIAPSIS":"545.931","NORAD_CAT_ID":"46368","PERIOD":"95.592","ELEMENT_SET_NO":"999","TLE_LINE1":"1 46368U 20062AV  22207.84047868  .00001615  00000-0  12729-3 0  9992","MEAN_ANOMALY":"296.4181","FILE":"3522469","TIME_SYSTEM":"UTC","RA_OF_ASC_NODE":"170.6133","RCS_SIZE":"LARGE","APOAPSIS":"548.530","GP_ID":"208927951","MEAN_ELEMENT_THEORY":"SGP4","REV_AT_EPOCH":"10536","BSTAR":"0.00012729000000","TLE_LINE2":"2 46368  53.0526 170.6133 0001877  63.7001 296.4181 15.06394471105367","SEMIMAJOR_AXIS":"6925.366"},{"REV_AT_EPOCH":"10527","BSTAR":"0.00014479000000","TLE_LINE2":"2 46370  53.0535 173.1787 0001940  58.0646 302.0532 15.06395600105275","SEMIMAJOR_AXIS":"6925.362","MEAN_ELEMENT_THEORY":"SGP4","FILE":"3522226","TIME_SYSTEM":"UTC","RCS_SIZE":"LARGE","RA_OF_ASC_NODE":"173.1787","APOAPSIS":"548.571","GP_ID":"208897142","MEAN_ANOMALY":"302.0532","ELEMENT_SET_NO":"999","TLE_LINE1":"1 46370U 20062AX  22207.27378106  .00001875  00000-0  14479-3 0  9996","PERIAPSIS":"545.884","NORAD_CAT_ID":"46370","PERIOD":"95.592","EPOCH":"2022-07-26T06:34:14.683584","DECAY_DATE":null,"INCLINATION":"53.0535","REF_FRAME":"TEME","OBJECT_NAME":"STARLINK-1670","COUNTRY_CODE":"US","MEAN_MOTION_DOT":"0.00001875","ECCENTRICITY":"0.00019400","OBJECT_ID":"2020-062AX","MEAN_MOTION":"15.06395600","ARG_OF_PERICENTER":"58.0646","CENTER_NAME":"EARTH","LAUNCH_DATE":"2020-09-03","MEAN_MOTION_DDOT":"0.0000000000000","SITE":"AFETR","OBJECT_TYPE":"PAYLOAD","CLASSIFICATION_TYPE":"U","EPHEMERIS_TYPE":"0"},{"MEAN_MOTION_DOT":"0.00000563","REF_FRAME":"TEME","INCLINATION":"53.0558","COUNTRY_CODE":"US","OBJECT_NAME":"STARLINK-1688","OBJECT_ID":"2020-062AY","ECCENTRICITY":"0.00017330","ARG_OF_PERICENTER":"68.3626","MEAN_MOTION":"15.06389527","LAUNCH_DATE":"2020-09-03","MEAN_MOTION_DDOT":"0.0000000000000","SITE":"AFETR","CENTER_NAME":"EARTH","OBJECT_TYPE":"PAYLOAD","EPHEMERIS_TYPE":"0","CLASSIFICATION_TYPE":"U","BSTAR":"0.00005669600000","REV_AT_EPOCH":"10526","SEMIMAJOR_AXIS":"6925.381","TLE_LINE2":"2 46371  53.0558 173.5029 0001733  68.3626 291.7547 15.06389527105266","RA_OF_ASC_NODE":"173.5029","RCS_SIZE":"LARGE","TIME_SYSTEM":"UTC","FILE":"3522226","GP_ID":"208897883","APOAPSIS":"548.446","MEAN_ELEMENT_THEORY":"SGP4","ELEMENT_SET_NO":"999","TLE_LINE1":"1 46371U 20062AY  22207.20007063  .00000563  00000-0  56696-4 0  9992","MEAN_ANOMALY":"291.7547","EPOCH":"2022-07-26T04:48:06.102432","DECAY_DATE":null,"PERIAPSIS":"546.045","PERIOD":"95.593","NORAD_CAT_ID":"46371"},{"MEAN_ANOMALY":"302.7832","TLE_LINE1":"1 46372U 20062AZ  22207.34198163 -.00000715  00000-0 -29092-4 0  9991","ELEMENT_SET_NO":"999","PERIOD":"95.593","NORAD_CAT_ID":"46372","PERIAPSIS":"545.925","DECAY_DATE":null,"EPOCH":"2022-07-26T08:12:27.212832","SEMIMAJOR_AXIS":"6925.377","TLE_LINE2":"2 46372  53.0541 192.8590 0001902  57.3340 302.7832 15.06390639105003","BSTAR":"-0.00002909200000","REV_AT_EPOCH":"10500","MEAN_ELEMENT_THEORY":"SGP4","GP_ID":"208896640","APOAPSIS":"548.559","RCS_SIZE":"LARGE","RA_OF_ASC_NODE":"192.8590","FILE":"3522226","TIME_SYSTEM":"UTC","CENTER_NAME":"EARTH","SITE":"AFETR","MEAN_MOTION_DDOT":"0.0000000000000","LAUNCH_DATE":"2020-09-03","EPHEMERIS_TYPE":"0","CLASSIFICATION_TYPE":"U","OBJECT_TYPE":"PAYLOAD","OBJECT_NAME":"STARLINK-1689","COUNTRY_CODE":"US","REF_FRAME":"TEME","INCLINATION":"53.0541","MEAN_MOTION_DOT":"-0.00000715","ARG_OF_PERICENTER":"57.3340","MEAN_MOTION":"15.06390639","OBJECT_ID":"2020-062AZ","ECCENTRICITY":"0.00019020"},{"APOAPSIS":"548.256","GP_ID":"208896890","TIME_SYSTEM":"UTC","FILE":"3522226","RA_OF_ASC_NODE":"123.7083","RCS_SIZE":"LARGE","MEAN_ELEMENT_THEORY":"SGP4","SEMIMAJOR_AXIS":"6925.343","TLE_LINE2":"2 46374  53.0524 123.7083 0001513  93.1580 266.9582 15.06401795105951","REV_AT_EPOCH":"10595","BSTAR":"0.00070017000000","DECAY_DATE":null,"EPOCH":"2022-07-26T03:45:44.232480","NORAD_CAT_ID":"46374","PERIOD":"95.592","PERIAPSIS":"546.160","TLE_LINE1":"1 46374U 20062BB  22207.15676195  .00010163  00000-0  70017-3 0  9996","ELEMENT_SET_NO":"999","MEAN_ANOMALY":"266.9582","MEAN_MOTION":"15.06401795","ARG_OF_PERICENTER":"93.1580","ECCENTRICITY":"0.00015130","OBJECT_ID":"2020-062BB","MEAN_MOTION_DOT":"0.00010163","COUNTRY_CODE":"US","OBJECT_NAME":"STARLINK-1711","INCLINATION":"53.0524","REF_FRAME":"TEME","EPHEMERIS_TYPE":"0","CLASSIFICATION_TYPE":"U","OBJECT_TYPE":"PAYLOAD","MEAN_MOTION_DDOT":"0.0000000000000","SITE":"AFETR","LAUNCH_DATE":"2020-09-03","CENTER_NAME":"EARTH"},{"CENTER_NAME":"EARTH","SITE":"AFETR","MEAN_MOTION_DDOT":"0.0000000000000","LAUNCH_DATE":"2020-09-03","EPHEMERIS_TYPE":"0","CLASSIFICATION_TYPE":"U","OBJECT_TYPE":"PAYLOAD","OBJECT_NAME":"STARLINK-1724","COUNTRY_CODE":"US","INCLINATION":"53.0549","REF_FRAME":"TEME","MEAN_MOTION_DOT":"0.00000331","MEAN_MOTION":"15.06396777","ARG_OF_PERICENTER":"61.6396","ECCENTRICITY":"0.00017320","OBJECT_ID":"2020-062BC","MEAN_ANOMALY":"298.4767","TLE_LINE1":"1 46375U 20062BC  22207.83450907  .00000331  00000-0  41149-4 0  9994","ELEMENT_SET_NO":"999","NORAD_CAT_ID":"46375","PERIOD":"95.592","PERIAPSIS":"546.024","DECAY_DATE":null,"EPOCH":"2022-07-26T20:01:41.583648","TLE_LINE2":"2 46375  53.0549 145.6456 0001732  61.6396 298.4767 15.06396777105705","SEMIMAJOR_AXIS":"6925.358","REV_AT_EPOCH":"10570","BSTAR":"0.00004114900000","MEAN_ELEMENT_THEORY":"SGP4","APOAPSIS":"548.423","GP_ID":"208926201","FILE":"3522469","TIME_SYSTEM":"UTC","RA_OF_ASC_NODE":"145.6456","RCS_SIZE":"LARGE"},{"PERIAPSIS":"546.158","PERIOD":"95.593","NORAD_CAT_ID":"46376","EPOCH":"2022-07-26T20:22:55.391808","DECAY_DATE":null,"MEAN_ANOMALY":"286.6296","ELEMENT_SET_NO":"999","TLE_LINE1":"1 46376U 20062BD  22207.84925222 -.00000077  00000-0  13745-4 0  9992","MEAN_ELEMENT_THEORY":"SGP4","RA_OF_ASC_NODE":"145.5982","RCS_SIZE":"LARGE","FILE":"3522469","TIME_SYSTEM":"UTC","GP_ID":"208926951","APOAPSIS":"548.309","BSTAR":"0.00001374500000","REV_AT_EPOCH":"10570","SEMIMAJOR_AXIS":"6925.368","TLE_LINE2":"2 46376  53.0545 145.5982 0001553  73.4864 286.6296 15.06393563105703","OBJECT_TYPE":"PAYLOAD","EPHEMERIS_TYPE":"0","CLASSIFICATION_TYPE":"U","CENTER_NAME":"EARTH","LAUNCH_DATE":"2020-09-03","MEAN_MOTION_DDOT":"0.0000000000000","SITE":"AFETR","OBJECT_ID":"2020-062BD","ECCENTRICITY":"0.00015530","ARG_OF_PERICENTER":"73.4864","MEAN_MOTION":"15.06393563","REF_FRAME":"TEME","INCLINATION":"53.0545","OBJECT_NAME":"STARLINK-1742","COUNTRY_CODE":"US","MEAN_MOTION_DOT":"-0.00000077"}];
